[{"OBJECT_NAME":"STARLINK-30986","OBJECT_ID":"2023-186V","EPOCH":"2026-03-09T00:12:17.228736","MEAN_MOTION":15.26746052,"ECCENTRICITY":0.00013223,"INCLINATION":43.0032,"RA_OF_ASC_NODE":67.355,"ARG_OF_PERICENTER":276.4823,"MEAN_ANOMALY":83.5877,"EPHEMERIS_TYPE":0,"CLASSIFICATION_TYPE":"U","NORAD_CAT_ID":58492,"ELEMENT_SET_NO":999,"REV_AT_EPOCH":12578,"BSTAR":3.626784e-5,"MEAN_MOTION_DOT":7.13e-6,"MEAN_MOTION_DDOT":0},{"OBJECT_NAME":"LYNK TOWER 6","OBJECT_ID":"2024-043AB","EPOCH":"2026-03-09T21:28:38.303328","MEAN_MOTION":15.29548678,"ECCENTRICITY":0.00097492,"INCLINATION":97.5426,"RA_OF_ASC_NODE":204.1954,"ARG_OF_PERICENTER":232.0253,"MEAN_ANOMALY":128.0107,"EPHEMERIS_TYPE":0,"CLASSIFICATION_TYPE":"U","NORAD_CAT_ID":59123,"ELEMENT_SET_NO":999,"REV_AT_EPOCH":11184,"BSTAR":0.00040142146,"MEAN_MOTION_DOT":0.0001144,"MEAN_MOTION_DDOT":0}]
